GLOBALSTAR M001         
1 25162U 98008A   25344.03206613 -.00000096  00000+0  69956-5 0  9995
2 25162  52.0002 181.4081 0000237 277.2893 245.3968 12.38223200265496
GLOBALSTAR M004         
1 25163U 98008B   25344.44071656 -.00000028  00000+0  41593-3 0  9998
2 25163  51.9999 236.4402 0003074 339.2712 191.6032 12.63410917283967
GLOBALSTAR M002         
1 25164U 98008C   25344.41049678 -.00000066  00000+0  20827-3 0  9994
2 25164  51.9975 158.3516 0002673 101.4502 258.6618 11.61514699204540
GLOBALSTAR M003         
1 25165U 98008D   25344.42100816 -.00000186  00000+0 -10357-2 0  9998
2 25165  51.9929  40.4070 0007632 287.5670  85.2111 12.12043313254597
GLOBALSTAR M014         
1 25306U 98023A   25344.52850875 -.00000093  00000+0 -28832-3 0  9995
2 25306  51.9850  77.5699 0000271   1.1880  12.2208 11.65483750211736
GLOBALSTAR M006         
1 25307U 98023B   25344.44379443 -.00000074  00000+0  27052-4 0  9996
2 25307  51.9910 136.8455 0004189  78.0177 315.2023 11.58178733237257
GLOBALSTAR M015         
1 25308U 98023C   25344.43645926 -.00000055  00000+0  41618-3 0  9990
2 25308  51.9819 243.4167 0013393  31.8316 140.1747 11.48862743214332
GLOBALSTAR M008         
1 25309U 98023D   25344.50489883 -.00000090  00000+0  49715-4 0  9993
2 25309  51.9989  46.8592 0002983 178.5933 195.2918 12.36076528259656
